INTELSAT 9 (IS-9)       
1 26451U 00043A   25122.39801281 -.00000022  00000+0  00000+0 0  9992
2 26451   9.4851  52.9084 0003868 359.0711  18.0924  1.00271606 40029
INTELSAT 10 (IS-10)     
1 26766U 01019A   25122.39801281 -.00000017  00000+0  00000+0 0  9999
2 26766   8.0935  63.4381 0004072 329.4221  37.0678  1.00272088 41504
INTELSAT 901 (IS-901)   
1 26824U 01024A   25119.06590181 -.00000144  00000+0  00000+0 0  9995
2 26824   0.1700  93.6733 0003136 312.8499  20.2264  0.98803104 18820
INTELSAT 902 (IS-902)   
1 26900U 01039A   25120.36294917 -.00000286  00000+0  00000+0 0  9996
2 26900   5.0730  76.8143 0004547 318.8047 263.5159  1.00272571 86554
INTELSAT 904 (IS-904)   
1 27380U 02007A   25122.23447706 -.00000222  00000+0  00000+0 0  9999
2 27380   5.8913  74.0917 0002950 330.1729 231.0379  1.00271020 47646
DIRECTV 5 (TEMPO 1)     
1 27426U 02023A   25122.39067709 -.00000064  00000+0  00000+0 0  9990
2 27426   3.8272  80.4415 0003167 319.6734 210.9616  1.00270974 84004
INTELSAT 905 (IS-905)   
1 27438U 02027A   25122.47355059  .00000088  00000+0  00000+0 0  9999
2 27438   5.7203  74.7276 0002840 309.7270 232.3531  1.00112817 47245
GALAXY 3C (G-3C)        
1 27445U 02030A   25122.41257440 -.00000160  00000+0  00000+0 0  9992
2 27445   2.6724  83.1863 0002743  48.7999 142.2588  1.00271392 42377
INTELSAT 906 (IS-906)   
1 27513U 02041A   25122.42266902  .00000005  00000+0  00000+0 0  9991
2 27513   4.7578  77.9804 0003357 337.0311  21.8930  1.00270608 82908
GALAXY 23 (G-23)        
1 27854U 03034A   25122.50368569  .00000004  00000+0  00000+0 0  9992
2 27854   2.1353  84.7868 0002706 320.1560 236.1725  1.00271345 79628
GALAXY 13 (HORIZONS-1)  
1 27954U 03044A   25122.54846844  .00000123  00000+0  00000+0 0  9997
2 27954   0.3558  90.3532 0002393 307.4372 230.3585  1.00271635 42451
INTELSAT 10-02          
1 28358U 04022A   25122.49850150 -.00000021  00000+0  00000+0 0  9990
2 28358   0.0408  82.7137 0001030 277.1626  39.2468  1.00270733 76438
XM-3 (RHYTHM)           
1 28626U 05008A   25122.51054925 -.00000209  00000+0  00000+0 0  9990
2 28626   0.0131 304.5132 0001952 223.8380 149.7726  1.00273030 73947
DIRECTV 8               
1 28659U 05019A   25122.39488635 -.00000008  00000+0  00000+0 0  9990
2 28659   0.0037  89.6358 0002826 309.3240 204.7020  1.00271179 72956
GALAXY 28 (G-28)        
1 28702U 05022A   25122.38137367 -.00000195  00000+0  00000+0 0  9992
2 28702   2.2396  84.0414 0001570 301.7870 243.3059  1.00270724 47867
GALAXY 16 (G-16)        
1 29236U 06023A   25122.34975389 -.00000136  00000+0  00000+0 0  9992
2 29236   0.0228 168.7636 0002583 217.1495 221.5015  1.00271325 68854
DIRECTV 9S              
1 29494U 06043A   25122.58463388 -.00000122  00000+0  00000+0 0  9992
2 29494   1.3608  85.8907 0002867 315.0788 289.0450  1.00271611 67998
GALAXY 17 (G-17)        
1 31307U 07016B   25122.42203008 -.00000214  00000+0  00000+0 0  9995
2 31307   1.9327  85.1358 0000152 222.5769 339.7966  1.00270793 65686
DIRECTV 10              
1 31862U 07032A   25122.53139738 -.00000113  00000+0  00000+0 0  9997
2 31862   0.0069  53.6317 0000181 265.9630 349.6060  1.00271455 65287
INTELSAT 11 (IS-11)     
1 32253U 07044B   25122.48260047 -.00000274  00000+0  00000+0 0  9995
2 32253   2.4958  83.7358 0000237   3.6626  79.5176  0.99048524 64381
HORIZONS-2              
1 32388U 07063B   25122.38794995 -.00000262  00000+0  00000+0 0  9995
2 32388   1.5419  85.7231 0001821 314.6247 246.0495  1.00269257 63697
DIRECTV 11              
1 32729U 08013A   25122.40942713 -.00000134  00000+0  00000+0 0  9994
2 32729   0.0306  79.4324 0000288 182.8536   6.4929  1.00267963 41474
GALAXY 18 (G-18)        
1 32951U 08024A   25122.44812147  .00000016  00000+0  00000+0 0  9992
2 32951   0.0166 266.3864 0002973 136.4598 216.0770  1.00270735 41730
INTELSAT 25 (IS-25)     
1 33153U 08034A   25122.37863848 -.00000232  00000+0  00000+0 0  9995
2 33153   1.6485  85.3895 0002927 319.5383 280.4252  1.00271178 61570
GALAXY 19 (G-19)        
1 33376U 08045A   25122.48841747 -.00000148  00000+0  00000+0 0  9996
2 33376   0.0135 265.8206 0002663 123.7458 269.9005  1.00271960 60787
FM-5                    
1 35493U 09034A   25122.37891894 -.00000209  00000+0  00000+0 0  9991
2 35493   0.0127 278.1176 0001197 298.8738  53.8021  1.00268703 42520
INTELSAT 14 (IS-14)     
1 36097U 09064A   25122.53169812 -.00000283  00000+0  00000+0 0  9993
2 36097   0.0240  34.0226 0002469  14.0251 319.0569  1.00272584 56489
INTELSAT 15 (IS-15)     
1 36106U 09067A   25122.47321740 -.00000195  00000+0  00000+0 0  9992
2 36106   0.0157 269.7568 0002110 123.1708  83.2121  1.00271395 37117
DIRECTV 12              
1 36131U 09075A   25122.53139763 -.00000113  00000+0  00000+0 0  9998
2 36131   0.0079  24.0379 0000437 322.1915 323.0430  1.00272140 56265
INTELSAT 16 (IS-16)     
1 36397U 10006A   25122.38794995 -.00000254  00000+0  00000+0 0  9991
2 36397   0.0375  80.2437 0001930 345.6139 218.1481  1.00271663 55532
XM-5                    
1 37185U 10053A   25122.53111758 -.00000033  00000+0  00000+0 0  9991
2 37185   0.0265 277.0306 0002590 281.8415  97.8182  1.00271062 53326
INTELSAT 17 (IS-17)     
1 37238U 10065B   25122.46939466 -.00000011  00000+0  00000+0 0  9995
2 37238   0.0122 248.4241 0002802 167.7553  39.4347  1.00270226 49138
INTELSAT 28 (IS-28)     
1 37392U 11016A   25122.37855161 -.00000234  00000+0  00000+0 0  9999
2 37392   0.7441  87.9441 0004352 307.6650 289.4822  1.00269017 49167
INTELSAT 18 (IS-18)     
1 37834U 11056A   25122.55510462  .00000043  00000+0  00000+0 0  9993
2 37834   0.0154 266.1477 0001880 145.6808 188.7195  1.00270343 49720
INTELSAT 22 (IS-22)     
1 38098U 12011A   25122.47061100 -.00000068  00000+0  00000+0 0  9997
2 38098   0.0139 284.3569 0001914 129.7943  47.9949  1.00272076  3077
INTELSAT 19 (IS-19)     
1 38356U 12030A   25122.54523601 -.00000066  00000+0  00000+0 0  9990
2 38356   0.0098 290.1765 0002818 105.7224 187.0939  1.00270036 46325
INTELSAT 20 (IS-20)     
1 38740U 12043A   25122.46982906 -.00000034  00000+0  00000+0 0  9994
2 38740   0.0069 225.5729 0002194 319.9181 272.7784  1.00271007 46633
INTELSAT 21 (IS-21)     
1 38749U 12045A   25122.37333878 -.00000294  00000+0  00000+0 0  9991
2 38749   0.0143 270.8898 0001406 131.2906 254.7452  1.00267852 46400
INTELSAT 23 (IS-23)     
1 38867U 12057A   25122.37438135 -.00000294  00000+0  00000+0 0  9997
2 38867   0.0162 189.9476 0000461 309.4761 162.8587  1.00271167 45830
FM-6                    
1 39360U 13058A   25122.48692708 -.00000026  00000+0  00000+0 0  9991
2 39360   0.0150 290.7632 0000789 208.3863 140.6534  1.00271952 41940
INTELSAT 30 (IS-30)     
1 40271U 14062A   25122.41257484 -.00000160  00000+0  00000+0 0  9990
2 40271   0.0299  54.3859 0000657 351.9518 227.7024  1.00271740  2660
DIRECTV 14              
1 40333U 14078B   25122.36517203 -.00000134  00000+0  00000+0 0  9999
2 40333   0.0233 302.4777 0000451 302.2072   8.0849  1.00268826 37922
DIRECTV 15              
1 40663U 15026A   25122.53139675 -.00000112  00000+0  00000+0 0  9997
2 40663   0.0504  87.8390 0000527 126.5316  94.7436  1.00271645 36416
SKY MEXICO-1            
1 40664U 15026B   25122.51202622 -.00000244  00000+0  00000+0 0  9995
2 40664   0.0284 334.2439 0002393  88.4150 263.5767  1.00272051 36415
INTELSAT 34 (IS-34)     
1 40874U 15039A   25122.30250572 -.00000294  00000+0  00000+0 0  9991
2 40874   0.0175 267.3721 0000734   8.1031 358.3811  1.00270073 35505
INTELSAT 31 (IS-31)     
1 41581U 16035A   25122.41257436 -.00000160  00000+0  00000+0 0  9994
2 41581   0.0131 243.5547 0002379 349.5469  40.9248  1.00270799 32565
INTELSAT 36 (IS-36)     
1 41747U 16053A   25121.98517164 -.00000033  00000+0  00000+0 0  9995
2 41747   0.0188 358.9653 0001253 305.1482 339.2021  1.00269985 31829
INTELSAT 32E (IS-32E)   
1 41945U 17007B   25122.37629272 -.00000278  00000+0  00000+0 0  9994
2 41945   0.0026 204.7388 0000597 101.3592   6.7111  1.00271799 30103
INTELSAT 35E (IS-35E)   
1 42818U 17041A   25122.37803032 -.00000247  00000+0  00000+0 0  9996
2 42818   0.0150 258.3654 0001871 134.2305 289.5427  1.00271402 28698
INTELSAT 37E (IS-37E)   
1 42950U 17059A   25122.38133178 -.00000150  00000+0  00000+0 0  9993
2 42950   0.0084 254.6398 0002382 143.7381 301.4387  1.00271672 27947
AZERSPACE 2 (IS-38)     
1 43632U 18074A   25122.43378164  .00000127  00000+0  00000+0 0  9994
2 43632   0.0177 263.1439 0001342 126.2275  32.4917  1.00270337 24328
HORIZONS-3E             
1 43633U 18074B   25122.53645214 -.00000041  00000+0  00000+0 0  9995
2 43633   0.0256 152.1569 0000928 143.5664 287.0834  1.00270174 24225
AT&T T-16               
1 44333U 19034A   25122.58554053 -.00000125  00000+0  00000+0 0  9998
2 44333   0.0489  86.6051 0000210  54.2858 189.7681  1.00275779 21518
INTELSAT 39 (IS-39)     
1 44476U 19049B   25122.42266902  .00000024  00000+0  00000+0 0  9995
2 44476   0.0168 270.5194 0000565  25.3361 138.8251  1.00270360 21006
GALAXY 30 (G-30)        
1 46114U 20056C   25122.43256278  .00000028  00000+0  00000+0 0  9996
2 46114   0.0175 270.5035 0001992 125.7303 215.0749  1.00272240 17177
GALAXY 33 (G-33)        
1 54026U 22128A   25122.43786023  .00000070  00000+0  00000+0 0  9992
2 54026   0.0156 276.0845 0001738 115.4591 213.6807  1.00270965  9622
GALAXY 34 (G-34)        
1 54027U 22128B   25122.49499135  .00000050  00000+0  00000+0 0  9992
2 54027   0.0120 293.3708 0001540 104.1635 232.3258  1.00270692  9792
GALAXY 31 (G-31)        
1 54243U 22153A   25122.62073711  .00000004  00000+0  00000+0 0  9992
2 54243   0.0141 247.1711 0001028 118.8956 317.1778  1.00271874  3016
GALAXY 32 (G-32)        
1 54244U 22153B   25122.41571638 -.00000183  00000+0  00000+0 0  9990
2 54244   0.0140 311.1891 0002669  67.0828 260.9580  1.00271064  9026
GALAXY 35 (G-35)        
1 54741U 22170A   25122.41414586 -.00000171  00000+0  00000+0 0  9996
2 54741   0.0160 245.5215 0001781 150.8982 240.1316  1.00271366  8779
GALAXY 36 (G-36)        
1 54742U 22170B   25122.36725715 -.00000194  00000+0  00000+0 0  9995
2 54742   0.0269 121.6848 0002399 305.3054 196.7444  1.00270762  8653
GALAXY 37 (G-37)        
1 57493U 23112A   25122.44495765  .00000039  00000+0  00000+0 0  9993
2 57493   0.0252  43.5868 0001886 346.4439 223.7553  1.00270557  6425
